STARLINK-30339          
1 57882U 23144U   26093.52992745  .00002596  00000+0  10637-3 0  9998
2 57882  43.0035 145.1531 0001103 287.3891  72.6840 15.26754817141436
STARLINK-30282          
1 57883U 23144V   26093.48234497  .00001938  00000+0  79938-4 0  9996
2 57883  42.9998 144.7975 0001652 268.0599  92.0063 15.27572615141438
STARLINK-30340          
1 57884U 23144W   26093.16311267  .00003102  00000+0  12219-3 0  9996
2 57884  43.0014 146.6882 0001004 289.8372  70.2371 15.27580083141381
STARLINK-30279          
1 57885U 23144X   26093.42080219  .00002159  00000+0  87922-4 0  9991
2 57885  43.0011 145.1958 0000809 269.7165  90.3594 15.27594115141365
YAOGAN-39 02A           
1 57886U 23145A   26093.86429306  .00018674  00000+0  77077-3 0  9993
2 57886  35.0030 307.8488 0003229 347.7606  12.3030 15.23170039141831
YAOGAN-39 02B           
1 57889U 23145D   26093.87360800  .00011805  00000+0  58310-3 0  9998
2 57889  34.9913 327.6402 0002268 107.3991 252.6969 15.17091119141594
YAOGAN-39 02C           
1 57890U 23145E   26093.87732671  .00011776  00000+0  58094-3 0  9995
2 57890  34.9944 327.7399 0004937 111.5735 248.5504 15.17127693141567
STARLINK-30465          
1 57891U 23146A   26093.49861847 -.00013489  00000+0 -49432-3 0  9994
2 57891  42.9984 173.8239 0001425 277.7686  82.3003 15.26725252140857
STARLINK-30470          
1 57892U 23146B   26093.56333880  .00011000  00000+0  40918-3 0  9999
2 57892  43.0029 173.4500 0001612 263.3751  96.6918 15.27537605140867
STARLINK-30473          
1 57893U 23146C   26093.59541492  .00004765  00000+0  18730-3 0  9990
2 57893  43.0046 173.6204 0002080 276.7033  83.3581 15.26728704140861
STARLINK-30443          
1 57894U 23146D   26093.57874894 -.00022404  00000+0 -80694-3 0  9994
2 57894  42.9999 173.5614 0002756 254.6621 105.3926 15.27580991140862
STARLINK-30467          
1 57895U 23146E   26093.62769791  .00007525  00000+0  28983-3 0  9998
2 57895  43.0000 173.0748 0000605 241.6274 118.4516 15.26748641140869
STARLINK-30469          
1 57896U 23146F   26093.51722528 -.00008743  00000+0 -30877-3 0  9994
2 57896  43.0064 173.9565 0001863 278.8483  81.2157 15.27556370140851
STARLINK-30474          
1 57897U 23146G   26093.50301506 -.00005999  00000+0 -21424-3 0  9991
2 57897  42.9989 173.8578 0000922 249.0778 110.9975 15.26725617140850
STARLINK-30479          
1 57898U 23146H   26093.58647890 -.00010534  00000+0 -38374-3 0  9992
2 57898  42.9998 173.6158 0001311 247.7544 112.3168 15.26726570140862
STARLINK-30481          
1 57899U 23146J   26093.57358992 -.00017180  00000+0 -63231-3 0  9998
2 57899  43.0020 173.5246 0002095 255.2454 104.8165 15.26736216140863
STARLINK-30457          
1 57900U 23146K   26093.60847131 -.00001831  00000+0 -58513-4 0  9997
2 57900  43.0060 173.7771 0004472 258.6915 101.3434 15.26753866139808
STARLINK-30472          
1 57901U 23146L   26093.57283380 -.00011444  00000+0 -40734-3 0  9990
2 57901  43.0016 170.0992 0001170 267.6215  92.4503 15.27550115139844
STARLINK-30462          
1 57902U 23146M   26093.52678019 -.00010202  00000+0 -37156-3 0  9998
2 57902  42.9995 174.0232 0001917 281.5852  78.4784 15.26704198140816
STARLINK-30449          
1 57903U 23146N   26093.62805951 -.00001758  00000+0 -55874-4 0  9991
2 57903  43.0012 173.0670 0001517 268.0926  91.9751 15.26727098139818
STARLINK-30466          
1 57904U 23146P   26093.51838096  .00009506  00000+0  36318-3 0  9994
2 57904  43.0021 173.9653 0001076 259.2049 100.8682 15.26778675139794
STARLINK-30428          
1 57906U 23146R   26093.59473614  .00001650  00000+0  71186-4 0  9990
2 57906  43.0021 173.6732 0001247 299.3143  60.7583 15.26738939139806
STARLINK-30482          
1 57907U 23146S   26093.61859004  .00017662  00000+0  65066-3 0  9994
2 57907  43.0026 173.8548 0002149 288.5671  71.4947 15.27536304139814
STARLINK-30464          
1 57908U 23146T   26093.57653188  .00021022  00000+0  12376-2 0  9995
2 57908  42.9972 176.9413 0001075 204.4167 155.6628 15.11255058139764
STARLINK-30463          
1 57909U 23146U   26093.61309388 -.00002812  00000+0 -95175-4 0  9999
2 57909  43.0076 173.8144 0001870 273.2640  86.7997 15.26734336139807
STARLINK-30453          
1 57910U 23146V   26093.61011297  .00082132  00000+0  29834-2 0  9998
2 57910  43.0025 170.3858 0001284 257.1010 102.9699 15.27333098139843
STARLINK-30478          
1 57911U 23146W   26093.61878585  .00018208  00000+0  68637-3 0  9998
2 57911  43.0049 172.9990 0001979 300.4738  59.5918 15.26759976140877
STARLINK-30477          
1 57912U 23146X   26093.56899435  .00016671  00000+0  61408-3 0  9991
2 57912  43.0027 170.0733 0000645 222.0682 138.0120 15.27573729140907
STARLINK-30450          
1 57913U 23147A   26093.61711317  .00008029  00000+0  30057-3 0  9995
2 57913  42.9965 184.1449 0002074 257.8157 102.2463 15.27623325140415
STARLINK-30483          
1 57914U 23147B   26093.56604906 -.00000217  00000+0  16281-5 0  9992
2 57914  43.0059  39.1408 0001184 270.7045  89.3671 15.27575811142118
STARLINK-30454          
1 57915U 23147C   26093.62020985 -.00002263  00000+0 -74708-4 0  9990
2 57915  43.0050 184.1646 0002898 263.2741  96.7781 15.26729896140416
STARLINK-30501          
1 57917U 23147E   26093.62742970 -.00149205  00000+0 -55827-2 0  9994
2 57917  43.0009 184.2195 0001153 231.2576 128.8173 15.27224719140435
STARLINK-30499          
1 57918U 23147F   26093.54818599  .00002516  00000+0  10087-3 0  9998
2 57918  43.0039  39.8299 0001527 265.4439  94.6239 15.27592460142134
STARLINK-30496          
1 57919U 23147G   26093.63898219  .00003677  00000+0  14314-3 0  9992
2 57919  43.0040 184.3082 0001143 274.4548  85.6173 15.27562259140440
STARLINK-30485          
1 57920U 23147H   26093.33335648  .00012843  00000+0  47596-3 0  9996
2 57920  43.0037 186.0892 0001971 262.6393 193.6021 15.27541754  5687
STARLINK-30492          
1 57921U 23147J   26093.64928017 -.00003732  00000+0 -12630-3 0  9999
2 57921  43.0026 184.3830 0000703 250.8468 109.2307 15.27542711140418
STARLINK-30440          
1 57923U 23147L   26093.66667824  .00083013  00000+0  29983-2 0  9995
2 57923  43.0004 184.5360 0001137 264.5046  85.3680 15.27515446  5729
STARLINK-30487          
1 57924U 23147M   26093.63062570  .00000328  00000+0  21935-4 0  9999
2 57924  43.0007 187.6303 0002146 276.0885  83.9721 15.26745326140400
STARLINK-30452          
1 57925U 23147N   26093.66667824  .00075736  00000+0  27388-2 0  9997
2 57925  43.0002 184.5676 0001528 245.4870  90.2763 15.27517138  5767
STARLINK-30468          
1 57926U 23147P   26093.61412779  .00000693  00000+0  35514-4 0  9992
2 57926  43.0010 187.5330 0002311 266.5807  93.4780 15.26740665140375
STARLINK-30448          
1 57928U 23147R   26093.63328848 -.00002543  00000+0 -85200-4 0  9994
2 57928  43.0009 187.6678 0001416 264.3025  95.7664 15.26724339140370
STARLINK-30476          
1 57930U 23147T   26093.83335647  .00119289  00000+0  27174-2 0  9992
2 57930  42.9927 127.3222 0018230  51.8174 283.0083 15.41635204  5929
STARLINK-30488          
1 57931U 23147U   26093.64004374 -.00006256  00000+0 -22395-3 0  9994
2 57931  42.9987 187.7137 0000995 267.6451  92.4286 15.26708326140404
STARLINK-30471          
1 57932U 23147V   26093.60041367 -.00005377  00000+0 -19111-3 0  9999
2 57932  43.0013 184.0194 0001462 256.8860 103.1828 15.26703410140416
STARLINK-30461          
1 57933U 23147W   26093.60942391 -.00008686  00000+0 -30676-3 0  9992
2 57933  43.0023 184.0848 0001296 278.2934  81.7771 15.27549597140412
STARLINK-30712          
1 57935U 23148A   26093.77033159  .00007039  00000+0  24915-3 0  9994
2 57935  53.1612 267.7063 0000286 165.3479 194.7531 15.30250656142269
STARLINK-30716          
1 57936U 23148B   26093.73461004 -.00001102  00000+0 -25087-4 0  9994
2 57936  53.1597 268.0975 0001315  95.8923 264.2228 15.30184759142258
STARLINK-30400          
1 57937U 23148C   26093.77354438  .00026795  00000+0  91240-3 0  9997
2 57937  53.1575 267.6776 0001314  93.6992 266.4159 15.30240546142265
STARLINK-30710          
1 57938U 23148D   26093.76099697 -.00002606  00000+0 -75973-4 0  9993
2 57938  53.1588 257.7661 0000479 130.9250 229.1792 15.30174884142390
STARLINK-30714          
1 57939U 23148E   26093.74093697 -.00003002  00000+0 -89345-4 0  9995
2 57939  53.1590 268.1213 0000910  93.8129 266.2975 15.30180771142257
STARLINK-30711          
1 57940U 23148F   26093.80308795 -.00003603  00000+0 -10965-3 0  9990
2 57940  53.1601 267.8192 0001120 105.3627 254.7497 15.30181247142261
STARLINK-30715          
1 57941U 23148G   26093.81785563 -.00003166  00000+0 -94904-4 0  9994
2 57941  53.1592 257.2680 0000911  85.2504 274.8601 15.30172369142415
STARLINK-30455          
1 57942U 23148H   26093.74409293 -.00002421  00000+0 -69645-4 0  9997
2 57942  53.1602 268.1084 0002097  81.7490 278.3748 15.30180522142252
STARLINK-30456          
1 57943U 23148J   26093.79677044 -.00001127  00000+0 -25950-4 0  9997
2 57943  53.1602 267.8532 0000710  97.0923 263.0158 15.30186396142260
STARLINK-30708          
1 57944U 23148K   26093.77672888 -.00003008  00000+0 -89537-4 0  9998
2 57944  53.1595 267.7280 0000920  86.0794 274.0312 15.30177604142264
STARLINK-30705          
1 57945U 23148L   26093.78728487 -.00002030  00000+0 -56479-4 0  9990
2 57945  53.1579 267.8021 0001361  95.4416 264.6740 15.30170722142260
STARLINK-30704          
1 57946U 23148M   26093.87387439 -.00002873  00000+0 -84943-4 0  9991
2 57946  53.1603 344.4747 0001468  50.2047 309.9083 15.30180245141176
STARLINK-30706          
1 57947U 23148N   26093.79359833  .00000297  00000+0  22175-4 0  9995
2 57947  53.1592 267.8273 0001324  86.0107 274.1045 15.30194421142264
STARLINK-30707          
1 57949U 23148Q   26093.79042957 -.00011559  00000+0 -37838-3 0  9999
2 57949  53.1581 267.8148 0002181 113.8769 246.2461 15.30225361142260
